{
  "norad_id": 68864,
  "name": "KUIPER-00299",
  "history": [
    {
      "epoch": "2026-05-02T10:00:03.000096Z",
      "apogee_km": 463.5288438988873,
      "perigee_km": 450.94082313028684,
      "latitude_deg": 35.58908504389648,
      "longitude_deg": -120.56944592636968,
      "height_km": 453.4947693271983,
      "semi_major_axis_km": 6835.371833514587,
      "eccentricity": 0.0009208,
      "inclination_deg": 51.8712,
      "raan_deg": 103.7371,
      "arg_perigee_deg": 131.3726,
      "mean_anomaly_deg": 1.0898,
      "mean_motion_rev_day": 15.36241685
    }
  ]
}