{"fetched_at":"2026-05-03T06:27:58Z","count":17151,"tles":[{"name":"KUIPER-00299","line1":"1 68864U 26095A   26122.41670139  .00068851  00000+0  19104-2 0  9992","line2":"2 68864  51.8712 103.7371 0009208 131.3726   1.0898 15.36241685  1404","category":"Other"}]}